[{"OBJECT_NAME":"IRIDIUM 33 DEB","OBJECT_ID":"1997-051GC","EPOCH":"2026-04-25T12:17:31.883712","MEAN_MOTION":14.43433944,"ECCENTRICITY":0.00325684,"INCLINATION":86.3405,"RA_OF_ASC_NODE":314.8011,"ARG_OF_PERICENTER":50.8102,"MEAN_ANOMALY":338.2343,"EPHEMERIS_TYPE":0,"CLASSIFICATION_TYPE":"U","NORAD_CAT_ID":34487,"ELEMENT_SET_NO":999,"REV_AT_EPOCH":90178,"BSTAR":0.00013614921,"MEAN_MOTION_DOT":4.83e-6,"MEAN_MOTION_DDOT":0},{"OBJECT_NAME":"IRIDIUM 33 DEB","OBJECT_ID":"1997-051GH","EPOCH":"2026-04-25T05:06:01.075680","MEAN_MOTION":14.28570693,"ECCENTRICITY":0.0184874,"INCLINATION":86.4703,"RA_OF_ASC_NODE":280.5458,"ARG_OF_PERICENTER":167.7052,"MEAN_ANOMALY":7.5808,"EPHEMERIS_TYPE":0,"CLASSIFICATION_TYPE":"U","NORAD_CAT_ID":34492,"ELEMENT_SET_NO":999,"REV_AT_EPOCH":86962,"BSTAR":0.0051587557,"MEAN_MOTION_DOT":0.00015585,"MEAN_MOTION_DDOT":0},{"OBJECT_NAME":"IRIDIUM 33 DEB","OBJECT_ID":"1997-051GN","EPOCH":"2026-04-25T15:35:34.218240","MEAN_MOTION":14.27957166,"ECCENTRICITY":0.00772235,"INCLINATION":86.2812,"RA_OF_ASC_NODE":355.1895,"ARG_OF_PERICENTER":267.1222,"MEAN_ANOMALY":121.4464,"EPHEMERIS_TYPE":0,"CLASSIFICATION_TYPE":"U","NORAD_CAT_ID":34497,"ELEMENT_SET_NO":999,"REV_AT_EPOCH":88794,"BSTAR":0.00043404499,"MEAN_MOTION_DOT":1.128e-5,"MEAN_MOTION_DDOT":0},{"OBJECT_NAME":"IRIDIUM 33 DEB","OBJECT_ID":"1997-051GZ","EPOCH":"2026-04-25T19:39:26.967168","MEAN_MOTION":14.39419694,"ECCENTRICITY":0.00667039,"INCLINATION":86.3714,"RA_OF_ASC_NODE":45.7165,"ARG_OF_PERICENTER":92.0875,"MEAN_ANOMALY":268.7964,"EPHEMERIS_TYPE":0,"CLASSIFICATION_TYPE":"U","NORAD_CAT_ID":34508,"ELEMENT_SET_NO":999,"REV_AT_EPOCH":89237,"BSTAR":0.0011828518,"MEAN_MOTION_DOT":3.798e-5,"MEAN_MOTION_DDOT":0},{"OBJECT_NAME":"IRIDIUM 33 DEB","OBJECT_ID":"1997-051HS","EPOCH":"2026-04-25T15:41:03.397056","MEAN_MOTION":14.43278988,"ECCENTRICITY":0.00055575,"INCLINATION":86.3754,"RA_OF_ASC_NODE":349.6903,"ARG_OF_PERICENTER":32.2528,"MEAN_ANOMALY":21.9679,"EPHEMERIS_TYPE":0,"CLASSIFICATION_TYPE":"U","NORAD_CAT_ID":34525,"ELEMENT_SET_NO":999,"REV_AT_EPOCH":90019,"BSTAR":0.00022939979,"MEAN_MOTION_DOT":7.92e-6,"MEAN_MOTION_DDOT":0},{"OBJECT_NAME":"IRIDIUM 33 DEB","OBJECT_ID":"1997-051HW","EPOCH":"2026-04-25T14:36:07.022304","MEAN_MOTION":14.4079398,"ECCENTRICITY":0.00068314,"INCLINATION":86.3646,"RA_OF_ASC_NODE":338.365,"ARG_OF_PERICENTER":111.7526,"MEAN_ANOMALY":248.4401,"EPHEMERIS_TYPE":0,"CLASSIFICATION_TYPE":"U","NORAD_CAT_ID":34529,"ELEMENT_SET_NO":999,"REV_AT_EPOCH":90069,"BSTAR":0.00014234468,"MEAN_MOTION_DOT":4.75e-6,"MEAN_MOTION_DDOT":0},{"OBJECT_NAME":"IRIDIUM 33 DEB","OBJECT_ID":"1997-051JH","EPOCH":"2026-04-25T19:49:03.603360","MEAN_MOTION":14.78403879,"ECCENTRICITY":0.00165819,"INCLINATION":86.3084,"RA_OF_ASC_NODE":246.1226,"ARG_OF_PERICENTER":70.4012,"MEAN_ANOMALY":59.4675,"EPHEMERIS_TYPE":0,"CLASSIFICATION_TYPE":"U","NORAD_CAT_ID":34540,"ELEMENT_SET_NO":999,"REV_AT_EPOCH":91000,"BSTAR":0.0015898417,"MEAN_MOTION_DOT":0.00011636,"MEAN_MOTION_DDOT":0},{"OBJECT_NAME":"IRIDIUM 33 DEB","OBJECT_ID":"1997-051JZ","EPOCH":"2026-04-25T17:53:33.379008","MEAN_MOTION":14.14024903,"ECCENTRICITY":0.01751356,"INCLINATION":86.3931,"RA_OF_ASC_NODE":227.7295,"ARG_OF_PERICENTER":233.5814,"MEAN_ANOMALY":124.9114,"EPHEMERIS_TYPE":0,"CLASSIFICATION_TYPE":"U","NORAD_CAT_ID":34648,"ELEMENT_SET_NO":999,"REV_AT_EPOCH":86853,"BSTAR":0.0033956306,"MEAN_MOTION_DOT":7.492e-5,"MEAN_MOTION_DDOT":0},{"OBJECT_NAME":"IRIDIUM 33 DEB","OBJECT_ID":"1997-051KD","EPOCH":"2026-04-25T10:00:36.844704","MEAN_MOTION":14.633032,"ECCENTRICITY":0.00272445,"INCLINATION":86.3262,"RA_OF_ASC_NODE":280.411,"ARG_OF_PERICENTER":195.2985,"MEAN_ANOMALY":196.0088,"EPHEMERIS_TYPE":0,"CLASSIFICATION_TYPE":"U","NORAD_CAT_ID":34652,"ELEMENT_SET_NO":999,"REV_AT_EPOCH":90438,"BSTAR":0.00080524594,"MEAN_MOTION_DOT":4.198e-5,"MEAN_MOTION_DDOT":0},{"OBJECT_NAME":"IRIDIUM 33 DEB","OBJECT_ID":"1997-051KM","EPOCH":"2026-04-25T15:25:29.980704","MEAN_MOTION":14.55633244,"ECCENTRICITY":0.00078487,"INCLINATION":86.3783,"RA_OF_ASC_NODE":338.7874,"ARG_OF_PERICENTER":288.5798,"MEAN_ANOMALY":126.3177,"EPHEMERIS_TYPE":0,"CLASSIFICATION_TYPE":"U","NORAD_CAT_ID":34690,"ELEMENT_SET_NO":999,"REV_AT_EPOCH":90042,"BSTAR":0.00033349154,"MEAN_MOTION_DOT":1.476e-5,"MEAN_MOTION_DDOT":0},{"OBJECT_NAME":"IRIDIUM 33 DEB","OBJECT_ID":"1997-051KT","EPOCH":"2026-04-25T00:37:58.221120","MEAN_MOTION":14.75011363,"ECCENTRICITY":0.00622421,"INCLINATION":86.1846,"RA_OF_ASC_NODE":324.9831,"ARG_OF_PERICENTER":68.3652,"MEAN_ANOMALY":84.3999,"EPHEMERIS_TYPE":0,"CLASSIFICATION_TYPE":"U","NORAD_CAT_ID":34696,"ELEMENT_SET_NO":999,"REV_AT_EPOCH":88631,"BSTAR":0.003189368,"MEAN_MOTION_DOT":0.00022209,"MEAN_MOTION_DDOT":0},{"OBJECT_NAME":"IRIDIUM 33 DEB","OBJECT_ID":"1997-051LJ","EPOCH":"2026-04-25T14:43:25.365792","MEAN_MOTION":14.40860352,"ECCENTRICITY":0.0017722,"INCLINATION":86.3394,"RA_OF_ASC_NODE":335.3245,"ARG_OF_PERICENTER":131.8225,"MEAN_ANOMALY":284.1511,"EPHEMERIS_TYPE":0,"CLASSIFICATION_TYPE":"U","NORAD_CAT_ID":34765,"ELEMENT_SET_NO":999,"REV_AT_EPOCH":89541,"BSTAR":0.00026770255,"MEAN_MOTION_DOT":8.79e-6,"MEAN_MOTION_DDOT":0}]
