IRIDIUM 33 DEB          
1 34487U 97051GC  26115.51217457  .00000483  00000+0  13615-3 0  9998
2 34487  86.3405 314.8011 0032568  50.8102 338.2343 14.43433944901782
IRIDIUM 33 DEB          
1 34492U 97051GH  26115.21251245  .00015585  00000+0  51588-2 0  9993
2 34492  86.4703 280.5458 0184874 167.7052   7.5808 14.28570693869628
IRIDIUM 33 DEB          
1 34497U 97051GN  26115.64970160  .00001128  00000+0  43404-3 0  9996
2 34497  86.2812 355.1895 0077223 267.1222 121.4464 14.27957166887941
IRIDIUM 33 DEB          
1 34508U 97051GZ  26115.81906212  .00003798  00000+0  11829-2 0  9995
2 34508  86.3714  45.7165 0066704  92.0875 268.7964 14.39419694892374
IRIDIUM 33 DEB          
1 34525U 97051HS  26115.65351154  .00000792  00000+0  22940-3 0  9993
2 34525  86.3754 349.6903 0005558  32.2528  21.9679 14.43278988900190
IRIDIUM 33 DEB          
1 34529U 97051HW  26115.60841461  .00000475  00000+0  14234-3 0  9992
2 34529  86.3646 338.3650 0006831 111.7526 248.4401 14.40793980900699
IRIDIUM 33 DEB          
1 34540U 97051JH  26115.82573615  .00011636  00000+0  15898-2 0  9999
2 34540  86.3084 246.1226 0016582  70.4012  59.4675 14.78403879910003
IRIDIUM 33 DEB          
1 34648U 97051JZ  26115.74552522  .00007492  00000+0  33956-2 0  9993
2 34648  86.3931 227.7295 0175136 233.5814 124.9114 14.14024903868530
IRIDIUM 33 DEB          
1 34652U 97051KD  26115.41709310  .00004198  00000+0  80525-3 0  9996
2 34652  86.3262 280.4110 0027245 195.2985 196.0088 14.63303200904382
IRIDIUM 33 DEB          
1 34690U 97051KM  26115.64270810  .00001476  00000+0  33349-3 0  9999
2 34690  86.3783 338.7874 0007849 288.5798 126.3177 14.55633244900423
IRIDIUM 33 DEB          
1 34696U 97051KT  26115.02636830  .00022209  00000+0  31894-2 0  9994
2 34696  86.1846 324.9831 0062242  68.3652  84.3999 14.75011363886318
IRIDIUM 33 DEB          
1 34765U 97051LJ  26115.61348802  .00000879  00000+0  26770-3 0  9992
2 34765  86.3394 335.3245 0017722 131.8225 284.1511 14.40860352895418
